CTC1_L_00019001-01
1 10000U 24809MD  26075.70028935  .00000000  00000+0  00000-0 0  9997
2 10000  65.0000   0.0000 0000000   0.0000   0.0000 15.80155680    14
CTC1_L_00019001-02
1 10001U 25130UK  26075.70028935  .00000000  00000+0  00000-0 0  9996
2 10001  65.0000   0.0000 0000000   0.0000  90.0000 15.80155680    14
CTC1_L_00019001-03
1 10002U 22185YE  26075.70028935  .00000000  00000+0  00000-0 0  9994
2 10002  65.0000   0.0000 0000000   0.0000 180.0000 15.80155680    15
CTC1_L_00019001-04
1 10003U 22410LE  26075.70028935  .00000000  00000+0  00000-0 0  9996
2 10003  65.0000   0.0000 0000000   0.0000 270.0000 15.80155680    16
CTC1_L_00019002-01
1 10004U 26548FF  26075.70028935  .00000000  00000+0  00000-0 0  9993
2 10004  65.0000  12.0000 0000000   0.0000  12.0000 15.80155680    14
CTC1_L_00019002-02
1 10005U 22212FZ  26075.70028935  .00000000  00000+0  00000-0 0  9998
2 10005  65.0000  12.0000 0000000   0.0000 102.0000 15.80155680    15
CTC1_L_00019002-03
1 10006U 25822FI  26075.70028935  .00000000  00000+0  00000-0 0  9999
2 10006  65.0000  12.0000 0000000   0.0000 192.0000 15.80155680    15
CTC1_L_00019002-04
1 10007U 24296IE  26075.70028935  .00000000  00000+0  00000-0 0  9994
2 10007  65.0000  12.0000 0000000   0.0000 282.0000 15.80155680    16
CTC1_L_00019003-01
1 10008U 26869CI  26075.70028935  .00000000  00000+0  00000-0 0  9993
2 10008  65.0000  24.0000 0000000   0.0000  24.0000 15.80155680    14
CTC1_L_00019003-02
1 10009U 26532PZ  26075.70028935  .00000000  00000+0  00000-0 0  9991
2 10009  65.0000  24.0000 0000000   0.0000 114.0000 15.80155680    15
CTC1_L_00019003-03
1 10010U 23442KN  26075.70028935  .00000000  00000+0  00000-0 0  9990
2 10010  65.0000  24.0000 0000000   0.0000 204.0000 15.80155680    17
CTC1_L_00019003-04
1 10011U 26157OR  26075.70028935  .00000000  00000+0  00000-0 0  9997
2 10011  65.0000  24.0000 0000000   0.0000 294.0000 15.80155680    17
CTC1_L_00019004-01
1 10012U 25428IM  26075.70028935  .00000000  00000+0  00000-0 0  9998
2 10012  65.0000  36.0000 0000000   0.0000  36.0000 15.80155680    15
CTC1_L_00019004-02
1 10013U 24947HA  26075.70028935  .00000000  00000+0  00000-0 0  9994
2 10013  65.0000  36.0000 0000000   0.0000 126.0000 15.80155680    16
CTC1_L_00019004-03
1 10014U 26338AT  26075.70028935  .00000000  00000+0  00000-0 0  9991
2 10014  65.0000  36.0000 0000000   0.0000 216.0000 15.80155680    17
CTC1_L_00019004-04
1 10015U 26259QG  26075.70028935  .00000000  00000+0  00000-0 0  9994
2 10015  65.0000  36.0000 0000000   0.0000 306.0000 15.80155680    18
CTC1_L_00019005-01
1 10016U 23050RP  26075.70028935  .00000000  00000+0  00000-0 0  9991
2 10016  65.0000  48.0000 0000000   0.0000  48.0000 15.80155680    15
CTC1_L_00019005-02
1 10017U 26150JI  26075.70028935  .00000000  00000+0  00000-0 0  9996
2 10017  65.0000  48.0000 0000000   0.0000 138.0000 15.80155680    16
CTC1_L_00019005-03
1 10018U 24907JR  26075.70028935  .00000000  00000+0  00000-0 0  9995
2 10018  65.0000  48.0000 0000000   0.0000 228.0000 15.80155680    17
CTC1_L_00019005-04
1 10019U 22777JW  26075.70028935  .00000000  00000+0  00000-0 0  9999
2 10019  65.0000  48.0000 0000000   0.0000 318.0000 15.80155680    18
CTC1_L_00019006-01
1 10020U 26924KW  26075.70028935  .00000000  00000+0  00000-0 0  9999
2 10020  65.0000  60.0000 0000000   0.0000  60.0000 15.80155680    18
CTC1_L_00019006-02
1 10021U 22536YP  26075.70028935  .00000000  00000+0  00000-0 0  9995
2 10021  65.0000  60.0000 0000000   0.0000 150.0000 15.80155680    19
CTC1_L_00019006-03
1 10022U 22966TN  26075.70028935  .00000000  00000+0  00000-0 0  9993
2 10022  65.0000  60.0000 0000000   0.0000 240.0000 15.80155680    10
CTC1_L_00019006-04
1 10023U 26674AA  26075.70028935  .00000000  00000+0  00000-0 0  9994
2 10023  65.0000  60.0000 0000000   0.0000 330.0000 15.80155680    11
CTC1_L_00019007-01
1 10024U 26226TR  26075.70028935  .00000000  00000+0  00000-0 0  9998
2 10024  65.0000  72.0000 0000000   0.0000  72.0000 15.80155680    18
CTC1_L_00019007-02
1 10025U 23088YT  26075.70028935  .00000000  00000+0  00000-0 0  9992
2 10025  65.0000  72.0000 0000000   0.0000 162.0000 15.80155680    19
CTC1_L_00019007-03
1 10026U 23544QN  26075.70028935  .00000000  00000+0  00000-0 0  9990
2 10026  65.0000  72.0000 0000000   0.0000 252.0000 15.80155680    10
CTC1_L_00019007-04
1 10027U 24152DI  26075.70028935  .00000000  00000+0  00000-0 0  9997
2 10027  65.0000  72.0000 0000000   0.0000 342.0000 15.80155680    11
CTC1_L_00019008-01
1 10028U 23367GE  26075.70028935  .00000000  00000+0  00000-0 0  9995
2 10028  65.0000  84.0000 0000000   0.0000  84.0000 15.80155680    18
CTC1_L_00019008-02
1 10029U 25928DF  26075.70028935  .00000000  00000+0  00000-0 0  9991
2 10029  65.0000  84.0000 0000000   0.0000 174.0000 15.80155680    19
CTC1_L_00019008-03
1 10030U 26674TB  26075.70028935  .00000000  00000+0  00000-0 0  9992
2 10030  65.0000  84.0000 0000000   0.0000 264.0000 15.80155680    11
CTC1_L_00019008-04
1 10031U 26766XV  26075.70028935  .00000000  00000+0  00000-0 0  9995
2 10031  65.0000  84.0000 0000000   0.0000 354.0000 15.80155680    12
CTC1_L_00019009-01
1 10032U 26412LK  26075.70028935  .00000000  00000+0  00000-0 0  9994
2 10032  65.0000  96.0000 0000000   0.0000  96.0000 15.80155680    19
CTC1_L_00019009-02
1 10033U 24295WO  26075.70028935  .00000000  00000+0  00000-0 0  9992
2 10033  65.0000  96.0000 0000000   0.0000 186.0000 15.80155680    10
CTC1_L_00019009-03
1 10034U 25182GB  26075.70028935  .00000000  00000+0  00000-0 0  9999
2 10034  65.0000  96.0000 0000000   0.0000 276.0000 15.80155680    11
CTC1_L_00019009-04
1 10035U 25116SX  26075.70028935  .00000000  00000+0  00000-0 0  9997
2 10035  65.0000  96.0000 0000000   0.0000   6.0000 15.80155680    13
CTC1_L_00019010-01
1 10036U 25256HQ  26075.70028935  .00000000  00000+0  00000-0 0  9993
2 10036  65.0000 108.0000 0000000   0.0000 108.0000 15.80155680    11
CTC1_L_00019010-02
1 10037U 25917PB  26075.70028935  .00000000  00000+0  00000-0 0  9998
2 10037  65.0000 108.0000 0000000   0.0000 198.0000 15.80155680    11
CTC1_L_00019010-03
1 10038U 26421V   26075.70028935  .00000000  00000+0  00000-0 0  9990
2 10038  65.0000 108.0000 0000000   0.0000 288.0000 15.80155680    12
CTC1_L_00019010-04
1 10039U 23953AI  26075.70028935  .00000000  00000+0  00000-0 0  9998
2 10039  65.0000 108.0000 0000000   0.0000  18.0000 15.80155680    14
CTC1_L_00019011-01
1 10040U 23097ZP  26075.70028935  .00000000  00000+0  00000-0 0  9999
2 10040  65.0000 120.0000 0000000   0.0000 120.0000 15.80155680    14
CTC1_L_00019011-02
1 10041U 26141HT  26075.70028935  .00000000  00000+0  00000-0 0  9993
2 10041  65.0000 120.0000 0000000   0.0000 210.0000 15.80155680    15
CTC1_L_00019011-03
1 10042U 25782IN  26075.70028935  .00000000  00000+0  00000-0 0  9994
2 10042  65.0000 120.0000 0000000   0.0000 300.0000 15.80155680    16
CTC1_L_00019011-04
1 10043U 24856NU  26075.70028935  .00000000  00000+0  00000-0 0  9996
2 10043  65.0000 120.0000 0000000   0.0000  30.0000 15.80155680    17
CTC1_L_00019012-01
1 10044U 26311VJ  26075.70028935  .00000000  00000+0  00000-0 0  9995
2 10044  65.0000 132.0000 0000000   0.0000 132.0000 15.80155680    14
CTC1_L_00019012-02
1 10045U 23018UL  26075.70028935  .00000000  00000+0  00000-0 0  9997
2 10045  65.0000 132.0000 0000000   0.0000 222.0000 15.80155680    15
CTC1_L_00019012-03
1 10046U 22206DO  26075.70028935  .00000000  00000+0  00000-0 0  9996
2 10046  65.0000 132.0000 0000000   0.0000 312.0000 15.80155680    16
CTC1_L_00019012-04
1 10047U 24869HV  26075.70028935  .00000000  00000+0  00000-0 0  9994
2 10047  65.0000 132.0000 0000000   0.0000  42.0000 15.80155680    17
CTC1_L_00019013-01
1 10048U 24575HP  26075.70028935  .00000000  00000+0  00000-0 0  9999
2 10048  65.0000 144.0000 0000000   0.0000 144.0000 15.80155680    14
CTC1_L_00019013-02
1 10049U 22626GM  26075.70028935  .00000000  00000+0  00000-0 0  9995
2 10049  65.0000 144.0000 0000000   0.0000 234.0000 15.80155680    15
CTC1_L_00019013-03
1 10050U 22620CC  26075.70028935  .00000000  00000+0  00000-0 0  9991
2 10050  65.0000 144.0000 0000000   0.0000 324.0000 15.80155680    17
CTC1_L_00019013-04
1 10051U 22184VC  26075.70028935  .00000000  00000+0  00000-0 0  9997
2 10051  65.0000 144.0000 0000000   0.0000  54.0000 15.80155680    18
CTC1_L_00019014-01
1 10052U 25427KQ  26075.70028935  .00000000  00000+0  00000-0 0  9991
2 10052  65.0000 156.0000 0000000   0.0000 156.0000 15.80155680    15
CTC1_L_00019014-02
1 10053U 23116KD  26075.70028935  .00000000  00000+0  00000-0 0  9995
2 10053  65.0000 156.0000 0000000   0.0000 246.0000 15.80155680    16
CTC1_L_00019014-03
1 10054U 23797FC  26075.70028935  .00000000  00000+0  00000-0 0  9991
2 10054  65.0000 156.0000 0000000   0.0000 336.0000 15.80155680    17
CTC1_L_00019014-04
1 10055U 25221ON  26075.70028935  .00000000  00000+0  00000-0 0  9996
2 10055  65.0000 156.0000 0000000   0.0000  66.0000 15.80155680    18
CTC1_L_00019015-01
1 10056U 24304JX  26075.70028935  .00000000  00000+0  00000-0 0  9998
2 10056  65.0000 168.0000 0000000   0.0000 168.0000 15.80155680    15
CTC1_L_00019015-02
1 10057U 22117EO  26075.70028935  .00000000  00000+0  00000-0 0  9999
2 10057  65.0000 168.0000 0000000   0.0000 258.0000 15.80155680    16
CTC1_L_00019015-03
1 10058U 25860NX  26075.70028935  .00000000  00000+0  00000-0 0  9998
2 10058  65.0000 168.0000 0000000   0.0000 348.0000 15.80155680    17
CTC1_L_00019015-04
1 10059U 23993AY  26075.70028935  .00000000  00000+0  00000-0 0  9994
2 10059  65.0000 168.0000 0000000   0.0000  78.0000 15.80155680    18
CTC1_L_00019016-01
1 10060U 25002IV  26075.70028935  .00000000  00000+0  00000-0 0  9999
2 10060  65.0000 180.0000 0000000   0.0000 180.0000 15.80155680    18
CTC1_L_00019016-02
1 10061U 25351FK  26075.70028935  .00000000  00000+0  00000-0 0  9997
2 10061  65.0000 180.0000 0000000   0.0000 270.0000 15.80155680    19
